[{"type":"atm","places":[{"name":"DBS ATM - ExxonMobil","fullAdddress":" , Singapore 0","town":"","streetName":"","streetNo":"","postCode":0,"loc":{"nLat":1.376926,"nLon":103.7626,"sLat":"1°22'36.93\"N","sLon":"103°45'45.36\"E"},"type":"atm","placeID":"ChIJxT2mvAoR2jER4phRb-mQ4B8"},{"name":"Citibank Singapore ATM - Bukit Panjang Plaza","fullAdddress":" , Singapore 0","town":"","streetName":"","streetNo":"","postCode":0,"loc":{"nLat":1.379962,"nLon":103.764309,"sLat":"1°22'47.86\"N","sLon":"103°45'51.51\"E"},"type":"atm","placeID":"ChIJS_fwOaMR2jERfStTcTnC734"}]},{"type":"fire_station","places":[]},{"type":"hospital","places":[]},{"type":"parking","places":[{"name":"Hillion Mall Car Park","fullAdddress":" , Singapore 0","town":"","streetName":"","streetNo":"","postCode":0,"loc":{"nLat":1.378257,"nLon":103.763557,"sLat":"1°22'41.73\"N","sLon":"103°45'48.80\"E"},"type":"parking","placeID":"ChIJz5USpiER2jERdXlY2oqHkrA"},{"name":"Bukit Panjang Plaza Car Park","fullAdddress":" , Singapore 0","town":"","streetName":"","streetNo":"","postCode":0,"loc":{"nLat":1.379528,"nLon":103.764752,"sLat":"1°22'46.30\"N","sLon":"103°45'53.11\"E"},"type":"parking","placeID":"ChIJD9QhhaMR2jERX6Xn2gozzk8"}]},{"type":"police","places":[]},{"type":"post_office","places":[{"name":"Singapore Post - Bukit Panjang Branch","fullAdddress":" , Singapore 0","town":"","streetName":"","streetNo":"","postCode":0,"loc":{"nLat":1.379176,"nLon":103.759129,"sLat":"1°22'45.03\"N","sLon":"103°45'32.86\"E"},"type":"post_office","placeID":"ChIJo9AjErwR2jER_R490kdkMO8"}]},{"type":"shopping_mall","places":[{"name":"Bukit Panjang Plaza","fullAdddress":" , Singapore 0","town":"","streetName":"","streetNo":"","postCode":0,"loc":{"nLat":1.38004,"nLon":103.764234,"sLat":"1°22'48.14\"N","sLon":"103°45'51.24\"E"},"type":"shopping_mall","placeID":"ChIJe3kTN6MR2jERr5FbmFCuxPI"},{"name":"Hillion mall","fullAdddress":" , Singapore 0","town":"","streetName":"","streetNo":"","postCode":0,"loc":{"nLat":1.378482,"nLon":103.763212,"sLat":"1°22'42.53\"N","sLon":"103°45'47.56\"E"},"type":"shopping_mall","placeID":"ChIJ_8HAraQR2jERaLrfjzD5k7Y"}]},{"type":"supermarket","places":[{"name":"Twinnie Stars Trading","fullAdddress":" , Singapore 0","town":"","streetName":"","streetNo":"","postCode":0,"loc":{"nLat":1.376999,"nLon":103.763506,"sLat":"1°22'37.20\"N","sLon":"103°45'48.62\"E"},"type":"supermarket","placeID":"ChIJy1e2tKQR2jERsRs4HLAFzpI"},{"name":"Sharma Solutions Pte Ltd","fullAdddress":" , Singapore 0","town":"","streetName":"","streetNo":"","postCode":0,"loc":{"nLat":1.376999,"nLon":103.763506,"sLat":"1°22'37.20\"N","sLon":"103°45'48.62\"E"},"type":"supermarket","placeID":"ChIJy1e2tKQR2jER63zzcnQ--Rk"}]},{"type":"subway_station","places":[{"name":"Bukit Panjang","fullAdddress":" , Singapore 0","town":"","streetName":"","streetNo":"","postCode":0,"loc":{"nLat":1.378604,"nLon":103.761432,"sLat":"1°22'42.98\"N","sLon":"103°45'41.16\"E"},"type":"subway_station","placeID":"ChIJ0_xeXrsR2jERpZ7qVzmnpag"},{"name":"Bukit Panjang","fullAdddress":" , Singapore 0","town":"","streetName":"","streetNo":"","postCode":0,"loc":{"nLat":1.37791,"nLon":103.76301,"sLat":"1°22'40.48\"N","sLon":"103°45'46.84\"E"},"type":"subway_station","placeID":"ChIJCwWTT7sR2jER6fxkPSs93kA"}]},{"type":"train_station","places":[]},{"type":"restaurant","places":[{"name":"Old Chang Kee @ Bukit Panjang Plaza","fullAdddress":" , Singapore 0","town":"","streetName":"","streetNo":"","postCode":0,"loc":{"nLat":1.38021,"nLon":103.764016,"sLat":"1°22'48.76\"N","sLon":"103°45'50.46\"E"},"type":"meal_takeaway","placeID":"ChIJUXhrN6MR2jERA41fDzAHhJI"},{"name":"Han's Cafe (Hillion Mall)","fullAdddress":" , Singapore 0","town":"","streetName":"","streetNo":"","postCode":0,"loc":{"nLat":1.377958,"nLon":103.763044,"sLat":"1°22'40.65\"N","sLon":"103°45'46.96\"E"},"type":"restaurant","placeID":"ChIJrVNIVrsR2jERxZNJWrM_Jk4"}]}]